start=new Date('%Y-%m-27T00:00:00.000Z').valueOf();
sats=[{"TLE_LINE1":"1 48100U 21027J   21233.85895173 -.00001087  00000-0 -54080-4 0  9991","RA_OF_ASC_NODE":"47.3691","COUNTRY_CODE":"US","MEAN_ANOMALY":"244.8891","MEAN_MOTION_DDOT":"0.0000000000000","PERIOD":"95.593","APOAPSIS":"548.636","GP_ID":"183214715","OBJECT_ID":"2021-027J","INCLINATION":"53.0568","PERIAPSIS":"545.856","OBJECT_NAME":"STARLINK-2430","MEAN_MOTION":"15.06389342","TIME_SYSTEM":"UTC","CLASSIFICATION_TYPE":"U","DECAY_DATE":null,"ARG_OF_PERICENTER":"115.2307","TLE_LINE2":"2 48100  53.0568  47.3691 0002007 115.2307 244.8891 15.06389342 22371","SITE":"AFETR","LAUNCH_DATE":"2021-04-07","ECCENTRICITY":"0.00020070","ELEMENT_SET_NO":"999","SEMIMAJOR_AXIS":"6925.381","NORAD_CAT_ID":"48100","REF_FRAME":"TEME","BSTAR":"-0.00005408000000","OBJECT_TYPE":"PAYLOAD","EPOCH":"2021-08-21T20:36:53.429472","EPHEMERIS_TYPE":"0","REV_AT_EPOCH":"2237","MEAN_MOTION_DOT":"-0.00001087","MEAN_ELEMENT_THEORY":"SGP4","RCS_SIZE":"LARGE","FILE":"3101032","CENTER_NAME":"EARTH"},{"MEAN_MOTION":"15.06393845","OBJECT_NAME":"STARLINK-2436","PERIAPSIS":"545.694","INCLINATION":"53.0572","CLASSIFICATION_TYPE":"U","TIME_SYSTEM":"UTC","MEAN_MOTION_DDOT":"0.0000000000000","MEAN_ANOMALY":"247.3199","COUNTRY_CODE":"US","RA_OF_ASC_NODE":"57.4429","TLE_LINE1":"1 48101U 21027K   21233.84234564  .00000728  00000-0  67764-4 0  9994","OBJECT_ID":"2021-027K","GP_ID":"183213980","APOAPSIS":"548.771","PERIOD":"95.593","EPHEMERIS_TYPE":"0","EPOCH":"2021-08-21T20:12:58.663296","OBJECT_TYPE":"PAYLOAD","BSTAR":"0.00006776400000","REF_FRAME":"TEME","CENTER_NAME":"EARTH","FILE":"3101032","RCS_SIZE":"LARGE","MEAN_ELEMENT_THEORY":"SGP4","MEAN_MOTION_DOT":"0.00000728","REV_AT_EPOCH":"2223","TLE_LINE2":"2 48101  53.0572  57.4429 0002222 112.8025 247.3199 15.06393845 22234","ARG_OF_PERICENTER":"112.8025","DECAY_DATE":null,"NORAD_CAT_ID":"48101","SEMIMAJOR_AXIS":"6925.367","ELEMENT_SET_NO":"999","ECCENTRICITY":"0.00022220","LAUNCH_DATE":"2021-04-07","SITE":"AFETR"},{"OBJECT_NAME":"STARLINK-2437","MEAN_MOTION":"15.06389631","INCLINATION":"53.0519","PERIAPSIS":"545.808","TIME_SYSTEM":"UTC","CLASSIFICATION_TYPE":"U","COUNTRY_CODE":"US","MEAN_MOTION_DDOT":"0.0000000000000","MEAN_ANOMALY":"245.0820","TLE_LINE1":"1 48102U 21027L   21233.88475632 -.00001196  00000-0 -61375-4 0  9996","RA_OF_ASC_NODE":"47.2908","PERIOD":"95.593","APOAPSIS":"548.682","GP_ID":"183214228","OBJECT_ID":"2021-027L","OBJECT_TYPE":"PAYLOAD","EPOCH":"2021-08-21T21:14:02.946048","EPHEMERIS_TYPE":"0","REF_FRAME":"TEME","BSTAR":"-0.00006137500000","FILE":"3101032","CENTER_NAME":"EARTH","REV_AT_EPOCH":"2237","MEAN_MOTION_DOT":"-0.00001196","MEAN_ELEMENT_THEORY":"SGP4","RCS_SIZE":"LARGE","ARG_OF_PERICENTER":"115.0385","TLE_LINE2":"2 48102  53.0519  47.2908 0002075 115.0385 245.0820 15.06389631 22374","DECAY_DATE":null,"SITE":"AFETR","LAUNCH_DATE":"2021-04-07","ECCENTRICITY":"0.00020750","ELEMENT_SET_NO":"999","NORAD_CAT_ID":"48102","SEMIMAJOR_AXIS":"6925.380"},{"RCS_SIZE":"LARGE","MEAN_ELEMENT_THEORY":"SGP4","MEAN_MOTION_DOT":"0.00000552","REV_AT_EPOCH":"2237","CENTER_NAME":"EARTH","FILE":"3101032","BSTAR":"0.00005598600000","REF_FRAME":"TEME","EPHEMERIS_TYPE":"0","EPOCH":"2021-08-21T21:24:38.509632","OBJECT_TYPE":"PAYLOAD","SEMIMAJOR_AXIS":"6925.345","NORAD_CAT_ID":"48103","ELEMENT_SET_NO":"999","LAUNCH_DATE":"2021-04-07","ECCENTRICITY":"0.00019120","SITE":"AFETR","DECAY_DATE":null,"TLE_LINE2":"2 48103  53.0418  47.2945 0001912 116.4590 243.6595 15.06401012 22377","ARG_OF_PERICENTER":"116.4590","CLASSIFICATION_TYPE":"U","TIME_SYSTEM":"UTC","PERIAPSIS":"545.886","INCLINATION":"53.0418","MEAN_MOTION":"15.06401012","OBJECT_NAME":"STARLINK-2438","OBJECT_ID":"2021-027M","GP_ID":"183214478","APOAPSIS":"548.535","PERIOD":"95.592","RA_OF_ASC_NODE":"47.2945","TLE_LINE1":"1 48103U 21027M   21233.89211238  .00000552  00000-0  55986-4 0  9992","MEAN_MOTION_DDOT":"0.0000000000000","MEAN_ANOMALY":"243.6595","COUNTRY_CODE":"US"},{"REV_AT_EPOCH":"2231","MEAN_MOTION_DOT":"-0.00001262","MEAN_ELEMENT_THEORY":"SGP4","RCS_SIZE":"LARGE","FILE":"3101032","CENTER_NAME":"EARTH","REF_FRAME":"TEME","BSTAR":"-0.00006581200000","OBJECT_TYPE":"PAYLOAD","EPOCH":"2021-08-21T21:42:33.732576","EPHEMERIS_TYPE":"0","SITE":"AFETR","ECCENTRICITY":"0.00020810","LAUNCH_DATE":"2021-04-07","ELEMENT_SET_NO":"999","SEMIMAJOR_AXIS":"6925.367","NORAD_CAT_ID":"48104","DECAY_DATE":null,"ARG_OF_PERICENTER":"127.9768","TLE_LINE2":"2 48104  53.0570  52.1614 0002081 127.9768 232.1409 15.06394082 22316","TIME_SYSTEM":"UTC","CLASSIFICATION_TYPE":"U","INCLINATION":"53.0570","PERIAPSIS":"545.791","OBJECT_NAME":"STARLINK-2439","MEAN_MOTION":"15.06394082","APOAPSIS":"548.673","PERIOD":"95.593","GP_ID":"183215216","OBJECT_ID":"2021-027N","TLE_LINE1":"1 48104U 21027N   21233.90455709 -.00001262  00000-0 -65812-4 0  9998","RA_OF_ASC_NODE":"52.1614","COUNTRY_CODE":"US","MEAN_MOTION_DDOT":"0.0000000000000","MEAN_ANOMALY":"232.1409"},{"RCS_SIZE":"LARGE","MEAN_ELEMENT_THEORY":"SGP4","MEAN_MOTION_DOT":"0.00024164","REV_AT_EPOCH":"2269","CENTER_NAME":"EARTH","FILE":"3101032","BSTAR":"0.00017597000000","REF_FRAME":"TEME","EPHEMERIS_TYPE":"0","EPOCH":"2021-08-21T19:32:12.574752","OBJECT_TYPE":"PAYLOAD","NORAD_CAT_ID":"48105","SEMIMAJOR_AXIS":"6727.882","ELEMENT_SET_NO":"999","ECCENTRICITY":"0.00045390","LAUNCH_DATE":"2021-04-07","SITE":"AFETR","DECAY_DATE":null,"TLE_LINE2":"2 48105  53.0477  24.0259 0004539   4.6529 355.4530 15.73204553 22694","ARG_OF_PERICENTER":"4.6529","CLASSIFICATION_TYPE":"U","TIME_SYSTEM":"UTC","PERIAPSIS":"346.693","INCLINATION":"53.0477","MEAN_MOTION":"15.73204553","OBJECT_NAME":"STARLINK-2440","OBJECT_ID":"2021-027P","GP_ID":"183213480","PERIOD":"91.533","APOAPSIS":"352.801","RA_OF_ASC_NODE":"24.0259","TLE_LINE1":"1 48105U 21027P   21233.81403443  .00024164  00000-0  17597-3 0  9997","MEAN_MOTION_DDOT":"0.0000000000000","MEAN_ANOMALY":"355.4530","COUNTRY_CODE":"US"},{"PERIAPSIS":"545.914","INCLINATION":"53.0559","OBJECT_NAME":"STARLINK-2442","MEAN_MOTION":"15.06395529","TIME_SYSTEM":"UTC","CLASSIFICATION_TYPE":"U","TLE_LINE1":"1 48106U 21027Q   21233.86169000  .00000873  00000-0  77536-4 0  9992","RA_OF_ASC_NODE":"47.3524","COUNTRY_CODE":"US","MEAN_MOTION_DDOT":"0.0000000000000","MEAN_ANOMALY":"248.4526","GP_ID":"183213728","APOAPSIS":"548.540","PERIOD":"95.592","OBJECT_ID":"2021-027Q","REF_FRAME":"TEME","BSTAR":"0.00007753600000","EPOCH":"2021-08-21T20:40:50.016000","OBJECT_TYPE":"PAYLOAD","EPHEMERIS_TYPE":"0","MEAN_MOTION_DOT":"0.00000873","REV_AT_EPOCH":"2237","RCS_SIZE":"LARGE","MEAN_ELEMENT_THEORY":"SGP4","FILE":"3101032","CENTER_NAME":"EARTH","DECAY_DATE":null,"TLE_LINE2":"2 48106  53.0559  47.3524 0001896 111.6665 248.4526 15.06395529 22373","ARG_OF_PERICENTER":"111.6665","ECCENTRICITY":"0.00018960","LAUNCH_DATE":"2021-04-07","SITE":"AFETR","SEMIMAJOR_AXIS":"6925.362","NORAD_CAT_ID":"48106","ELEMENT_SET_NO":"999"},{"RCS_SIZE":"LARGE","MEAN_ELEMENT_THEORY":"SGP4","MEAN_MOTION_DOT":"0.00000745","REV_AT_EPOCH":"2237","CENTER_NAME":"EARTH","FILE":"3101032","BSTAR":"0.00006892900000","REF_FRAME":"TEME","EPHEMERIS_TYPE":"0","EPOCH":"2021-08-21T21:03:25.143840","OBJECT_TYPE":"PAYLOAD","SEMIMAJOR_AXIS":"6925.347","NORAD_CAT_ID":"48107","ELEMENT_SET_NO":"999","LAUNCH_DATE":"2021-04-07","ECCENTRICITY":"0.00017130","SITE":"AFETR","DECAY_DATE":null,"TLE_LINE2":"2 48107  53.0555  47.2816 0001713 110.6911 249.4262 15.06400515 22374","ARG_OF_PERICENTER":"110.6911","CLASSIFICATION_TYPE":"U","TIME_SYSTEM":"UTC","PERIAPSIS":"546.026","INCLINATION":"53.0555","MEAN_MOTION":"15.06400515","OBJECT_NAME":"STARLINK-2443","OBJECT_ID":"2021-027R","GP_ID":"183214979","APOAPSIS":"548.398","PERIOD":"95.592","RA_OF_ASC_NODE":"47.2816","TLE_LINE1":"1 48107U 21027R   21233.87737435  .00000745  00000-0  68929-4 0  9991","MEAN_MOTION_DDOT":"0.0000000000000","MEAN_ANOMALY":"249.4262","COUNTRY_CODE":"US"},{"CLASSIFICATION_TYPE":"U","TIME_SYSTEM":"UTC","MEAN_MOTION":"15.06400817","OBJECT_NAME":"STARLINK-2444","PERIAPSIS":"545.632","INCLINATION":"53.0570","OBJECT_ID":"2021-027S","GP_ID":"183214716","PERIOD":"95.592","APOAPSIS":"548.790","MEAN_ANOMALY":"249.8926","MEAN_MOTION_DDOT":"0.0000000000000","COUNTRY_CODE":"US","RA_OF_ASC_NODE":"57.4065","TLE_LINE1":"1 48108U 21027S   21233.85065448  .00000980  00000-0  84728-4 0  9994","CENTER_NAME":"EARTH","FILE":"3101032","RCS_SIZE":"LARGE","MEAN_ELEMENT_THEORY":"SGP4","MEAN_MOTION_DOT":"0.00000980","REV_AT_EPOCH":"2222","EPHEMERIS_TYPE":"0","EPOCH":"2021-08-21T20:24:56.547072","OBJECT_TYPE":"PAYLOAD","BSTAR":"0.00008472800000","REF_FRAME":"TEME","SEMIMAJOR_AXIS":"6925.346","NORAD_CAT_ID":"48108","ELEMENT_SET_NO":"999","LAUNCH_DATE":"2021-04-07","ECCENTRICITY":"0.00022800","SITE":"AFETR","TLE_LINE2":"2 48108  53.0570  57.4065 0002280 110.2309 249.8926 15.06400817 22228","ARG_OF_PERICENTER":"110.2309","DECAY_DATE":null},{"TLE_LINE1":"1 48109U 21027T   21233.86447269  .00000445  00000-0  48779-4 0  9993","RA_OF_ASC_NODE":"67.3367","COUNTRY_CODE":"US","MEAN_MOTION_DDOT":"0.0000000000000","MEAN_ANOMALY":"265.1353","GP_ID":"183213981","PERIOD":"95.592","APOAPSIS":"548.824","OBJECT_ID":"2021-027T","PERIAPSIS":"545.603","INCLINATION":"53.0557","OBJECT_NAME":"STARLINK-2445","MEAN_MOTION":"15.06399976","TIME_SYSTEM":"UTC","CLASSIFICATION_TYPE":"U","DECAY_DATE":null,"TLE_LINE2":"2 48109  53.0557  67.3367 0002326  94.9902 265.1353 15.06399976 22090","ARG_OF_PERICENTER":"94.9902","LAUNCH_DATE":"2021-04-07","ECCENTRICITY":"0.00023260","SITE":"AFETR","SEMIMAJOR_AXIS":"6925.349","NORAD_CAT_ID":"48109","ELEMENT_SET_NO":"999","REF_FRAME":"TEME","BSTAR":"0.00004877900000","EPOCH":"2021-08-21T20:44:50.440416","OBJECT_TYPE":"PAYLOAD","EPHEMERIS_TYPE":"0","MEAN_MOTION_DOT":"0.00000445","REV_AT_EPOCH":"2209","RCS_SIZE":"LARGE","MEAN_ELEMENT_THEORY":"SGP4","FILE":"3101032","CENTER_NAME":"EARTH"}];
